[
    {
        "Altitude(m)": 558749.6554721864,
        "Argument of Periapsis(deg)": 0.019868973332140504,
        "Eccentricity": 0.0,
        "Inclination(deg)": 53.0,
        "Latitude(deg)": 48.12834689699344,
        "Longitude(deg)": -165.65117438478563,
        "Mean Anomaly(deg)": 68.45667860273274,
        "RAAN(deg)": 239.97043010558406,
        "Satellite Name": "Starlink Shell 1 1058",
        "Satellite Number": 1058,
        "Semi-Major Axis(m)": 6931778.249405717,
        "Time(s)": 570
    },
    {
        "Altitude(m)": 558811.9186571143,
        "Argument of Periapsis(deg)": 0.02021755181165174,
        "Eccentricity": 0.0,
        "Inclination(deg)": 53.0,
        "Latitude(deg)": 48.40018275713511,
        "Longitude(deg)": -164.84589591670442,
        "Mean Anomaly(deg)": 69.08350980628947,
        "RAAN(deg)": 239.96991133550657,
        "Satellite Name": "Starlink Shell 1 1058",
        "Satellite Number": 1058,
        "Semi-Major Axis(m)": 6931778.249405717,
        "Time(s)": 580
    },
    {
        "Altitude(m)": 558872.7712991784,
        "Argument of Periapsis(deg)": 0.020566130291162974,
        "Eccentricity": 0.0,
        "Inclination(deg)": 53.0,
        "Latitude(deg)": 48.66571335266984,
        "Longitude(deg)": -164.03166179316275,
        "Mean Anomaly(deg)": 69.71034100984622,
        "RAAN(deg)": 239.9693925654291,
        "Satellite Name": "Starlink Shell 1 1058",
        "Satellite Number": 1058,
        "Semi-Major Axis(m)": 6931778.249405717,
        "Time(s)": 590
    },
    {
        "Altitude(m)": 558932.176147435,
        "Argument of Periapsis(deg)": 0.020914708770674213,
        "Eccentricity": 0.0,
        "Inclination(deg)": 53.0,
        "Latitude(deg)": 48.92481405919058,
        "Longitude(deg)": -163.2085093799563,
        "Mean Anomaly(deg)": 70.33717221340287,
        "RAAN(deg)": 239.9688737953516,
        "Satellite Name": "Starlink Shell 1 1058",
        "Satellite Number": 1058,
        "Semi-Major Axis(m)": 6931778.249405717,
        "Time(s)": 600
    },
    {
        "Altitude(m)": 558990.0968874587,
        "Argument of Periapsis(deg)": 0.021263287250185448,
        "Eccentricity": 0.0,
        "Inclination(deg)": 53.0,
        "Latitude(deg)": 49.177360187063606,
        "Longitude(deg)": -162.37648876581682,
        "Mean Anomaly(deg)": 70.96400341695961,
        "RAAN(deg)": 239.96835502527412,
        "Satellite Name": "Starlink Shell 1 1058",
        "Satellite Number": 1058,
        "Semi-Major Axis(m)": 6931778.249405717,
        "Time(s)": 610
    },
    {
        "Altitude(m)": 559046.498159269,
        "Argument of Periapsis(deg)": 0.021611865729696686,
        "Eccentricity": 0.0,
        "Inclination(deg)": 53.0,
        "Latitude(deg)": 49.4232271762974,
        "Longitude(deg)": -161.53566277465654,
        "Mean Anomaly(deg)": 71.59083462051632,
        "RAAN(deg)": 239.9678362551967,
        "Satellite Name": "Starlink Shell 1 1058",
        "Satellite Number": 1058,
        "Semi-Major Axis(m)": 6931778.249405717,
        "Time(s)": 620
    },
    {
        "Altitude(m)": 559101.3455747418,
        "Argument of Periapsis(deg)": 0.02196044420920792,
        "Eccentricity": 0.0,
        "Inclination(deg)": 53.0,
        "Latitude(deg)": 49.662290802437894,
        "Longitude(deg)": -160.6861086378611,
        "Mean Anomaly(deg)": 72.21766582407305,
        "RAAN(deg)": 239.9673174851192,
        "Satellite Name": "Starlink Shell 1 1058",
        "Satellite Number": 1058,
        "Semi-Major Axis(m)": 6931778.249405717,
        "Time(s)": 630
    },
    {
        "Altitude(m)": 559154.6057345283,
        "Argument of Periapsis(deg)": 0.02230902268871916,
        "Eccentricity": 0.0,
        "Inclination(deg)": 53.0,
        "Latitude(deg)": 49.894427393229215,
        "Longitude(deg)": -159.82791711949497,
        "Mean Anomaly(deg)": 72.8444970276298,
        "RAAN(deg)": 239.9667987150417,
        "Satellite Name": "Starlink Shell 1 1058",
        "Satellite Number": 1058,
        "Semi-Major Axis(m)": 6931778.249405717,
        "Time(s)": 640
    },
    {
        "Altitude(m)": 559206.2462445128,
        "Argument of Periapsis(deg)": 0.022657601168230398,
        "Eccentricity": 0.0,
        "Inclination(deg)": 53.0,
        "Latitude(deg)": 50.11951405569571,
        "Longitude(deg)": -158.96119413242604,
        "Mean Anomaly(deg)": 73.47132823118645,
        "RAAN(deg)": 239.9662799449643,
        "Satellite Name": "Starlink Shell 1 1058",
        "Satellite Number": 1058,
        "Semi-Major Axis(m)": 6931778.249405717,
        "Time(s)": 650
    },
    {
        "Altitude(m)": 559256.2357317199,
        "Argument of Periapsis(deg)": 0.023006179647741636,
        "Eccentricity": 0.0,
        "Inclination(deg)": 53.0,
        "Latitude(deg)": 50.33742891318007,
        "Longitude(deg)": -158.08606063788153,
        "Mean Anomaly(deg)": 74.0981594347432,
        "RAAN(deg)": 239.9657611748868,
        "Satellite Name": "Starlink Shell 1 1058",
        "Satellite Number": 1058,
        "Semi-Major Axis(m)": 6931778.249405717,
        "Time(s)": 660
    },
    {
        "Altitude(m)": 559304.5438597266,
        "Argument of Periapsis(deg)": 0.023354758127252868,
        "Eccentricity": 0.0,
        "Inclination(deg)": 53.0,
        "Latitude(deg)": 50.548051351769544,
        "Longitude(deg)": -157.2026525042388,
        "Mean Anomaly(deg)": 74.7249906382999,
        "RAAN(deg)": 239.96524240480932,
        "Satellite Name": "Starlink Shell 1 1058",
        "Satellite Number": 1058,
        "Semi-Major Axis(m)": 6931778.249405717,
        "Time(s)": 670
    },
    {
        "Altitude(m)": 559351.1413435546,
        "Argument of Periapsis(deg)": 0.023703336606764106,
        "Eccentricity": 0.0,
        "Inclination(deg)": 53.0,
        "Latitude(deg)": 50.75126227542978,
        "Longitude(deg)": -156.31112183269258,
        "Mean Anomaly(deg)": 75.35182184185663,
        "RAAN(deg)": 239.96472363473185,
        "Satellite Name": "Starlink Shell 1 1058",
        "Satellite Number": 1058,
        "Semi-Major Axis(m)": 6931778.249405717,
        "Time(s)": 680
    },
    {
        "Altitude(m)": 559395.9999640551,
        "Argument of Periapsis(deg)": 0.024051915086275345,
        "Eccentricity": 0.0,
        "Inclination(deg)": 53.0,
        "Latitude(deg)": 50.946944369037496,
        "Longitude(deg)": -155.4116367188311,
        "Mean Anomaly(deg)": 75.97865304541332,
        "RAAN(deg)": 239.96420486465436,
        "Satellite Name": "Starlink Shell 1 1058",
        "Satellite Number": 1058,
        "Semi-Major Axis(m)": 6931778.249405717,
        "Time(s)": 690
    },
    {
        "Altitude(m)": 559439.0925817239,
        "Argument of Periapsis(deg)": 0.024400493565786583,
        "Eccentricity": 0.0,
        "Inclination(deg)": 53.0,
        "Latitude(deg)": 51.134982368393416,
        "Longitude(deg)": -154.50438095783176,
        "Mean Anomaly(deg)": 76.60548424897003,
        "RAAN(deg)": 239.9636860945769,
        "Satellite Name": "Starlink Shell 1 1058",
        "Satellite Number": 1058,
        "Semi-Major Axis(m)": 6931778.249405717,
        "Time(s)": 700
    },
    {
        "Altitude(m)": 559480.3931500023,
        "Argument of Periapsis(deg)": 0.024749072045297815,
        "Eccentricity": 0.0,
        "Inclination(deg)": 53.0,
        "Latitude(deg)": 51.315263336176194,
        "Longitude(deg)": -153.58955520112926,
        "Mean Anomaly(deg)": 77.23231545252678,
        "RAAN(deg)": 239.96316732449944,
        "Satellite Name": "Starlink Shell 1 1058",
        "Satellite Number": 1058,
        "Semi-Major Axis(m)": 6931778.249405717,
        "Time(s)": 710
    },
    {
        "Altitude(m)": 559519.8767280494,
        "Argument of Periapsis(deg)": 0.025097650524809053,
        "Eccentricity": 0.0,
        "Inclination(deg)": 53.0,
        "Latitude(deg)": 51.48767694267332,
        "Longitude(deg)": -152.6673765339992,
        "Mean Anomaly(deg)": 77.85914665608347,
        "RAAN(deg)": 239.96264855442195,
        "Satellite Name": "Starlink Shell 1 1058",
        "Satellite Number": 1058,
        "Semi-Major Axis(m)": 6931778.249405717,
        "Time(s)": 720
    },
    {
        "Altitude(m)": 559557.5194929396,
        "Argument of Periapsis(deg)": 0.02544622900432029,
        "Eccentricity": 0.0,
        "Inclination(deg)": 53.0,
        "Latitude(deg)": 51.65211575001754,
        "Longitude(deg)": -151.73807798241268,
        "Mean Anomaly(deg)": 78.48597785964016,
        "RAAN(deg)": 239.96212978434446,
        "Satellite Name": "Starlink Shell 1 1058",
        "Satellite Number": 1058,
        "Semi-Major Axis(m)": 6931778.249405717,
        "Time(s)": 730
    },
    {
        "Altitude(m)": 559593.2987513054,
        "Argument of Periapsis(deg)": 0.02579480748383153,
        "Eccentricity": 0.0,
        "Inclination(deg)": 53.0,
        "Latitude(deg)": 51.80847549854937,
        "Longitude(deg)": -150.80190945788743,
        "Mean Anomaly(deg)": 79.1128090631969,
        "RAAN(deg)": 239.96161101426702,
        "Satellite Name": "Starlink Shell 1 1058",
        "Satellite Number": 1058,
        "Semi-Major Axis(m)": 6931778.249405717,
        "Time(s)": 740
    },
    {
        "Altitude(m)": 559627.1929504473,
        "Argument of Periapsis(deg)": 0.026143385963342765,
        "Eccentricity": 0.0,
        "Inclination(deg)": 53.0,
        "Latitude(deg)": 51.956655393815794,
        "Longitude(deg)": -149.8591371109037,
        "Mean Anomaly(deg)": 79.73964026675361,
        "RAAN(deg)": 239.96109224418953,
        "Satellite Name": "Starlink Shell 1 1058",
        "Satellite Number": 1058,
        "Semi-Major Axis(m)": 6931778.249405717,
        "Time(s)": 750
    }
]